OBJECT_NAME,OBJECT_ID,EPOCH,MEAN_MOTION,ECCENTRICITY,INCLINATION,RA_OF_ASC_NODE,ARG_OF_PERICENTER,MEAN_ANOMALY,EPHEMERIS_TYPE,CLASSIFICATION_TYPE,NORAD_CAT_ID,ELEMENT_SET_NO,REV_AT_EPOCH,BSTAR,MEAN_MOTION_DOT,MEAN_MOTION_DDOT
IRIDIUM 156,2018-061H,2026-07-07T16:46:46.383744,14.34216906,.0002051,86.3942,48.1499,89.7201,270.4230,0,U,43576,999,41631,.51387E-4,.164E-5,0
IRIDIUM 164,2018-061J,2026-07-07T17:59:50.470080,14.34215918,.0002267,86.3947,48.1694,90.0975,270.0480,0,U,43577,999,41636,.41757E-4,.137E-5,0
IRIDIUM 159,2018-061K,2026-07-07T00:29:30.352416,14.34212534,.00024908,86.3956,48.4124,92.3377,267.8104,0,U,43578,999,41622,.59818379E-4,.187E-5,0
IRIDIUM 180,2019-002A,2026-07-07T08:51:06.943104,14.34217063,.00022662,86.3985,345.1599,91.1242,269.0213,0,U,43922,999,39188,.5390883E-4,.171E-5,0
IRIDIUM 176,2019-002B,2026-07-07T09:55:21.405216,14.72241969,.00023536,86.6103,345.0819,88.6688,271.4799,0,U,43923,999,40222,.10386911E-3,.679E-5,0
IRIDIUM 168,2019-002C,2026-07-07T10:22:26.643648,14.34217652,.00022292,86.3986,345.2112,90.5286,269.6165,0,U,43924,999,39187,.9259716E-5,.46E-6,0
IRIDIUM 173,2019-002D,2026-07-07T10:04:10.835904,14.34217812,.00021569,86.3983,345.1046,90.6699,269.4744,0,U,43925,999,39185,.33450601E-4,.113E-5,0
IRIDIUM 169,2019-002E,2026-07-07T00:08:44.093760,14.38612974,.00016932,86.4219,16.9051,95.1525,264.9867,0,U,43926,999,39307,.70385862E-4,.235E-5,0
IRIDIUM 172,2019-002F,2026-07-07T09:55:02.854272,14.34217742,.00021558,86.3984,345.1158,88.0621,272.0821,0,U,43927,999,39186,.68017419E-4,.21E-5,0
IRIDIUM 175,2019-002G,2026-07-07T17:22:04.151424,14.43624521,.0004828,86.4516,281.9370,130.4968,229.6655,0,U,43928,999,40194,.73618E-4,.27E-5,0
IRIDIUM 171,2019-002H,2026-07-07T09:27:38.867040,14.34216858,.00021882,86.3994,345.4318,95.0226,265.1220,0,U,43929,999,39185,.72857993E-4,.224E-5,0
IRIDIUM 170,2019-002J,2026-07-06T22:39:07.605792,14.72241895,.00023629,86.6102,345.2804,85.1782,274.9705,0,U,43930,999,40216,.1082509E-3,.707E-5,0
IRIDIUM 167,2019-002K,2026-07-07T09:18:30.875904,14.34216869,.00021887,86.3984,345.1483,100.2055,259.9388,0,U,43931,999,39185,.6489094E-4,.202E-5,0
IRIDIUM 181,2023-068S,2026-07-07T16:44:05.373024,14.43309563,.0002469,86.4481,48.2145,85.2492,274.8991,0,U,56726,999,16539,.6085E-4,.225E-5,0
IRIDIUM 177,2023-068T,2026-07-07T17:45:21.396672,14.80021221,.0002129,86.1980,319.0322,91.7607,268.3857,0,U,56727,999,16940,.11884E-3,.925E-5,0
IRIDIUM 174,2023-068U,2026-07-07T09:46:23.550528,14.72250857,.00021137,86.6111,345.2360,82.0944,278.0513,0,U,56728,999,16899,.10870113E-3,.71E-5,0
IRIDIUM 178,2023-068V,2026-07-07T11:00:01.821024,14.80023948,.00023108,86.6532,16.8871,87.1357,273.0129,0,U,56729,999,16936,.93182518E-4,.731E-5,0
IRIDIUM 179,2023-068W,2026-07-06T23:30:51.174144,14.80027672,.00022643,86.6766,26.1256,90.3091,269.8390,0,U,56730,999,16929,.108741E-3,.848E-5,0
